BEIDOU-3 M17 (C36)      
1 43706U 18093A   26061.46828306 -.00000026  00000+0  00000+0 0  9990
2 43706  54.1714 185.9163 0006994 297.4131  70.7484  1.86228347 49556
BEIDOU-3 M18 (C37)      
1 43707U 18093B   26061.31825568 -.00000028  00000+0  00000+0 0  9994
2 43707  54.1724 185.9133 0006020 341.6195  18.3110  1.86226384 49549
BEIDOU-3 IGSO-1 (C38)   
1 44204U 19023A   26063.82970532 -.00000208  00000+0  00000+0 0  9991
2 44204  58.5544  38.7210 0026001 236.4823 305.2336  1.00270861  6165
BEIDOU-2 G8 (C01)       
1 44231U 19027A   26063.42864138 -.00000263  00000+0  00000+0 0  9996
2 44231   1.3928  74.2820 0011710 280.8825 105.6990  1.00247794 25039
BEIDOU-3 IGSO-2 (C39)   
1 44337U 19035A   26057.68879618 -.00000176  00000+0  00000+0 0  9995
2 44337  55.2338 159.8353 0038734 206.4752 153.7223  1.00247364 24561
BEIDOU-3 M24 (C46)      
1 44542U 19061A   26062.99913500 -.00000010  00000+0  00000+0 0  9998
2 44542  54.3992 186.2751 0008488  19.7399 340.2521  1.86228942 43836
BEIDOU-3 M23 (C45)      
1 44543U 19061B   26062.31966779 -.00000018  00000+0  00000+0 0  9999
2 44543  54.3976 186.2660 0005077  14.2210 162.4807  1.86227170 43823
BEIDOU-3 IGSO-3 (C40)   
1 44709U 19073A   26063.99963126 -.00000162  00000+0  00000+0 0  9994
2 44709  54.9773 282.0233 0040544 188.9429 171.0293  1.00269136 23410
BEIDOU-3 M22 (C44)      
1 44793U 19078A   26063.37544912 -.00000060  00000+0  00000+0 0  9999
2 44793  54.0307 303.5169 0007273  35.6258 324.4804  1.86231851 42694
BEIDOU-3 M21 (C43)      
1 44794U 19078B   26062.97806659 -.00000058  00000+0  00000+0 0  9991
2 44794  54.0042 303.4937 0005911  39.9322 320.1697  1.86227541 42693
BEIDOU-3 M19 (C41)      
1 44864U 19090A   26064.23164716 -.00000031  00000+0  00000+0 0  9996
2 44864  56.4684  66.2251 0020441 291.4862  25.5599  1.86231383 42293
BEIDOU-3 M20 (C42)      
1 44865U 19090B   26064.18513910 -.00000031  00000+0  00000+0 0  9995
2 44865  56.4699  66.2609 0017839 302.9432  72.5320  1.86231416 42285
BEIDOU-3 G2 (C60)       
1 45344U 20017A   26064.17117687 -.00000147  00000+0  00000+0 0  9997
2 45344   2.6560  45.5996 0002768 306.1729 312.7844  1.00271212 22212
BEIDOU-3 G3 (C61)       
1 45807U 20040A   26064.03458959 -.00000362  00000+0  00000+0 0  9991
2 45807   2.1916  67.1263 0004366 316.8797 261.7048  1.00275152 21026
BEIDOU-3 G4 (C62)       
1 56564U 23066A   26064.27905297 -.00000120  00000+0  00000+0 0  9994
2 56564   0.6469 311.0336 0002137 158.0431 314.4349  1.00272339 10359
BEIDOU-3 M28 (C50)      
1 58654U 23207A   26064.12943781 -.00000033  00000+0  00000+0 0  9990
2 58654  55.6609  65.8120 0004920 303.0244  56.9487  1.86229789 14909
BEIDOU-3 M26 (C48)      
1 58655U 23207B   26062.31605649 -.00000020  00000+0  00000+0 0  9994
2 58655  55.6613  65.8595 0005721 288.0153  71.9513  1.86229607 14852
